PERSEUS-M1              
1 40039U 14033AF  26138.33035960  .00001402  00000+0  13186-3 0  9994
2 40039  97.9635  81.9777 0012723  42.8372 317.3837 14.95523176646176
POLYITAN-1              
1 40042U 14033AJ  26138.80415234  .00011817  00000+0  38317-3 0  9990
2 40042  98.0962 162.3101 0005696 240.0236 120.0439 15.32154281649092
TIGRISAT                
1 40043U 14033AK  26138.40243643  .00001375  00000+0  16395-3 0  9990
2 40043  97.7798 289.1062 0049725 170.8027 189.4111 14.85021879641203
AEROCUBE 6A             
1 40045U 14033AM  26138.89864720  .00003543  00000+0  30208-3 0  9998
2 40045  97.7224 306.1714 0040146 112.7205 247.8269 14.97756867642236
AEROCUBE 6B             
1 40046U 14033AN  26138.46206282  .00003972  00000+0  32628-3 0  9999
2 40046  97.7175 305.4682 0038503 107.4236 253.1202 14.99173041642301
CANX-4                  
1 40055U 14034C   26138.22637964  .00000566  00000+0  79924-4 0  9996
2 40055  98.3160  12.4349 0014076 105.7344 254.5421 14.81203571640092
CANX-5                  
1 40056U 14034D   26138.09005326  .00000583  00000+0  82172-4 0  9991
2 40056  98.3163  12.3353 0014070 106.3261 253.9499 14.81220629630886
UKUBE-1                 
1 40074U 14037F   26138.94234481  .00005679  00000+0  32578-3 0  9999
2 40074  98.4241 139.1552 0000398 132.8085 227.3177 15.13034237644134
BRITE-PL2 (HEWELIUSZ)   
1 40119U 14049B   26138.31178672  .00001301  00000+0  12594-3 0  9996
2 40119  97.9065 250.0897 0013575 203.4228 156.6375 14.94468289636986
AEROCUBE 5C             
1 40965U 15058B   26138.86704538  .00002142  00000+0  19788-3 0  9998
2 40965  64.7682 353.7926 0129923  74.7977 286.7459 14.91273609361284
AEROCUBE 7              
1 40966U 15058C   26138.81279768  .00002909  00000+0  24126-3 0  9999
2 40966  64.7625 336.8066 0119688  73.4969 287.9256 14.95480192361563
FOX-1A (AO-85)          
1 40967U 15058D   26138.63672456  .00002064  00000+0  19406-3 0  9998
2 40967  64.7765  10.8054 0129201  68.1875 293.2924 14.90780838109167
SINOD-D 1               
1 40968U 15058E   26138.86111782  .00003055  00000+0  25259-3 0  9998
2 40968  64.7760 350.7343 0117720  64.8575 296.4696 14.95659384112276
SNAP-3 ALICE            
1 40970U 15058G   26138.88069398  .00057008  00000+0  85193-3 0  9998
2 40970  64.7516 204.7284 0033312  26.9654 333.3210 15.54033874112326
LMRST-SAT               
1 40971U 15058H   26138.24906614  .00002096  00000+0  19788-3 0  9994
2 40971  64.7771   8.2915 0130952  70.3605 291.1585 14.90404641109094
SNAP-3 EDDIE            
1 40972U 15058J   26138.57162064  .00047515  00000+0  68228-3 0  9992
2 40972  64.7433 196.7243 0033654  30.9859 329.3260 15.55164174114413
PROPCUBE 3              
1 40973U 15058K   26138.82636512  .00002654  00000+0  22814-3 0  9991
2 40973  64.7689 344.2560 0123087  71.6205 289.8247 14.94042196110418
BISONSAT                
1 40974U 15058L   26138.74116026  .00006867  00000+0  34335-3 0  9997
2 40974  64.7603 268.7929 0078634  59.7512 301.1366 15.15551834111159
SNAP-3 JIMI             
1 40975U 15058M   26138.89593326  .00003981  00000+0  28176-3 0  9996
2 40975  64.7649 312.4251 0105068  67.5350 293.6852 15.01978122109828
PROPCUBE 1 (FLORA)      
1 40976U 15058N   26138.10929506  .00002137  00000+0  20931-3 0  9997
2 40976  64.7761  28.4429 0129744  72.6996 288.8262 14.89036393111784
SINOD-D 3               
1 40977U 15058P   26138.91998406  .00002892  00000+0  25181-3 0  9992
2 40977  64.7735   7.1960 0118240  69.8344 291.5442 14.93773336110380
HORYU-4                 
1 41340U 16012D   26138.74643519  .00139486  00000+0  71945-3 0  9990
2 41340  30.9885 292.2958 0004626  76.1068 284.0104 15.79598825566139
RAVAN                   
1 41849U 16067B   26138.92338555  .00031027  00000+0  51974-3 0  9997
2 41849  97.9933  25.1809 0007200 104.1115 256.0937 15.51783452523154
CELTEE 1                
1 41850U 16067C   26138.83734240  .00003660  00000+0  17676-3 0  9993
2 41850  98.0706   3.4044 0001513  56.9062 303.2316 15.19364275521428
OPTICUBE 04             
1 41851U 16067D   26138.84771791  .00001416  00000+0  92606-4 0  9991
2 41851  98.0727 349.5990 0014844 212.6570 147.3741 15.09522411520742
AEROCUBE 8D             
1 41852U 16067E   26138.35002547  .00004530  00000+0  19073-3 0  9990
2 41852  98.0716   6.2566 0002281 217.4113 142.6964 15.23941579521523
AEROCUBE 8C             
1 41853U 16067F   26138.90498364  .00005128  00000+0  21381-3 0  9997
2 41853  98.0586   4.1194 0006036 148.2977 211.8623 15.24187046521606
CORVUS BC2              
1 42846U 17042X   26138.89717476  .00001600  00000+0  11345-3 0  9990
2 42846  97.4040 301.3956 0012378 205.2843 154.7781 15.06088173482659
CORVUS BC1              
1 42847U 17042Y   26138.89511313  .00001525  00000+0  10786-3 0  9997
2 42847  97.4070 302.1884 0011907 180.9014 179.2195 15.06258703482680
MAKERSAT 0              
1 43016U 17073D   26138.90850185  .00016695  00000+0  46599-3 0  9990
2 43016  97.4663  21.2218 0110586  18.3053 342.2119 15.30778554461983
